[{"OBJECT_NAME":"STARLINK-36325","OBJECT_ID":"2026-034M","EPOCH":"2026-03-15T14:28:01.828416","MEAN_MOTION":15.80963337,"ECCENTRICITY":0.00019089,"INCLINATION":53.1582,"RA_OF_ASC_NODE":181.6257,"ARG_OF_PERICENTER":47.381,"MEAN_ANOMALY":312.7374,"EPHEMERIS_TYPE":0,"CLASSIFICATION_TYPE":"U","NORAD_CAT_ID":67861,"ELEMENT_SET_NO":999,"REV_AT_EPOCH":487,"BSTAR":0.0015251584,"MEAN_MOTION_DOT":0.00312776,"MEAN_MOTION_DDOT":0},{"OBJECT_NAME":"STARLINK-36332","OBJECT_ID":"2026-034N","EPOCH":"2026-03-15T14:26:57.249600","MEAN_MOTION":15.80931809,"ECCENTRICITY":0.00021614,"INCLINATION":53.1581,"RA_OF_ASC_NODE":181.6204,"ARG_OF_PERICENTER":26.361,"MEAN_ANOMALY":333.7522,"EPHEMERIS_TYPE":0,"CLASSIFICATION_TYPE":"U","NORAD_CAT_ID":67862,"ELEMENT_SET_NO":999,"REV_AT_EPOCH":487,"BSTAR":0.0012502031,"MEAN_MOTION_DOT":0.00254142,"MEAN_MOTION_DDOT":0},{"OBJECT_NAME":"STARLINK-36835","OBJECT_ID":"2026-034P","EPOCH":"2026-03-15T14:25:52.498848","MEAN_MOTION":15.80929428,"ECCENTRICITY":0.00021084,"INCLINATION":53.1582,"RA_OF_ASC_NODE":181.6143,"ARG_OF_PERICENTER":50.8064,"MEAN_ANOMALY":309.3146,"EPHEMERIS_TYPE":0,"CLASSIFICATION_TYPE":"U","NORAD_CAT_ID":67863,"ELEMENT_SET_NO":999,"REV_AT_EPOCH":487,"BSTAR":0.0013799832,"MEAN_MOTION_DOT":0.00281463,"MEAN_MOTION_DDOT":0},{"OBJECT_NAME":"STARLINK-36831","OBJECT_ID":"2026-034Q","EPOCH":"2026-03-15T14:24:47.651328","MEAN_MOTION":15.80887585,"ECCENTRICITY":0.00016906,"INCLINATION":53.1582,"RA_OF_ASC_NODE":181.6101,"ARG_OF_PERICENTER":46.9713,"MEAN_ANOMALY":313.1451,"EPHEMERIS_TYPE":0,"CLASSIFICATION_TYPE":"U","NORAD_CAT_ID":67864,"ELEMENT_SET_NO":999,"REV_AT_EPOCH":487,"BSTAR":0.0015467593,"MEAN_MOTION_DOT":0.00316238,"MEAN_MOTION_DDOT":0},{"OBJECT_NAME":"STARLINK-36738","OBJECT_ID":"2026-034R","EPOCH":"2026-03-15T14:23:42.512640","MEAN_MOTION":15.80875464,"ECCENTRICITY":0.00018399,"INCLINATION":53.1581,"RA_OF_ASC_NODE":181.6046,"ARG_OF_PERICENTER":111.0908,"MEAN_ANOMALY":249.0312,"EPHEMERIS_TYPE":0,"CLASSIFICATION_TYPE":"U","NORAD_CAT_ID":67865,"ELEMENT_SET_NO":999,"REV_AT_EPOCH":487,"BSTAR":0.0012782284,"MEAN_MOTION_DOT":0.00259335,"MEAN_MOTION_DDOT":0},{"OBJECT_NAME":"STARLINK-36780","OBJECT_ID":"2026-034S","EPOCH":"2026-03-15T14:22:37.837056","MEAN_MOTION":15.80910082,"ECCENTRICITY":0.00014579,"INCLINATION":53.1584,"RA_OF_ASC_NODE":181.5996,"ARG_OF_PERICENTER":146.9817,"MEAN_ANOMALY":213.1297,"EPHEMERIS_TYPE":0,"CLASSIFICATION_TYPE":"U","NORAD_CAT_ID":67866,"ELEMENT_SET_NO":999,"REV_AT_EPOCH":487,"BSTAR":0.00099453812,"MEAN_MOTION_DOT":0.00200559,"MEAN_MOTION_DDOT":0},{"OBJECT_NAME":"STARLINK-36761","OBJECT_ID":"2026-034T","EPOCH":"2026-03-15T14:21:32.849568","MEAN_MOTION":15.80949247,"ECCENTRICITY":0.00013575,"INCLINATION":53.1584,"RA_OF_ASC_NODE":181.5932,"ARG_OF_PERICENTER":55.6422,"MEAN_ANOMALY":304.4729,"EPHEMERIS_TYPE":0,"CLASSIFICATION_TYPE":"U","NORAD_CAT_ID":67867,"ELEMENT_SET_NO":999,"REV_AT_EPOCH":487,"BSTAR":0.0012992968,"MEAN_MOTION_DOT":0.00264683,"MEAN_MOTION_DDOT":0},{"OBJECT_NAME":"STARLINK-36762","OBJECT_ID":"2026-034U","EPOCH":"2026-03-15T14:20:28.048704","MEAN_MOTION":15.80930072,"ECCENTRICITY":0.0001233,"INCLINATION":53.1585,"RA_OF_ASC_NODE":181.5889,"ARG_OF_PERICENTER":59.9011,"MEAN_ANOMALY":300.2134,"EPHEMERIS_TYPE":0,"CLASSIFICATION_TYPE":"U","NORAD_CAT_ID":67868,"ELEMENT_SET_NO":999,"REV_AT_EPOCH":487,"BSTAR":0.0018316082,"MEAN_MOTION_DOT":0.00378079,"MEAN_MOTION_DDOT":0},{"OBJECT_NAME":"STARLINK-36779","OBJECT_ID":"2026-034V","EPOCH":"2026-03-15T14:19:23.380896","MEAN_MOTION":15.80906856,"ECCENTRICITY":0.00010545,"INCLINATION":53.1586,"RA_OF_ASC_NODE":181.5844,"ARG_OF_PERICENTER":102.6691,"MEAN_ANOMALY":257.445,"EPHEMERIS_TYPE":0,"CLASSIFICATION_TYPE":"U","NORAD_CAT_ID":67869,"ELEMENT_SET_NO":999,"REV_AT_EPOCH":487,"BSTAR":0.00090831086,"MEAN_MOTION_DOT":0.00182699,"MEAN_MOTION_DDOT":0},{"OBJECT_NAME":"STARLINK-36770","OBJECT_ID":"2026-034W","EPOCH":"2026-03-15T14:17:13.797312","MEAN_MOTION":15.80913155,"ECCENTRICITY":0.00015348,"INCLINATION":53.1584,"RA_OF_ASC_NODE":181.5741,"ARG_OF_PERICENTER":49.0832,"MEAN_ANOMALY":311.0324,"EPHEMERIS_TYPE":0,"CLASSIFICATION_TYPE":"U","NORAD_CAT_ID":67870,"ELEMENT_SET_NO":999,"REV_AT_EPOCH":487,"BSTAR":0.00098291775,"MEAN_MOTION_DOT":0.0019818,"MEAN_MOTION_DDOT":0},{"OBJECT_NAME":"STARLINK-36769","OBJECT_ID":"2026-034X","EPOCH":"2026-03-15T14:18:18.393408","MEAN_MOTION":15.80939242,"ECCENTRICITY":0.00011915,"INCLINATION":53.158,"RA_OF_ASC_NODE":181.5786,"ARG_OF_PERICENTER":55.3311,"MEAN_ANOMALY":304.7824,"EPHEMERIS_TYPE":0,"CLASSIFICATION_TYPE":"U","NORAD_CAT_ID":67871,"ELEMENT_SET_NO":999,"REV_AT_EPOCH":487,"BSTAR":0.0012255663,"MEAN_MOTION_DOT":0.00249052,"MEAN_MOTION_DDOT":0},{"OBJECT_NAME":"STARLINK-36786","OBJECT_ID":"2026-034Y","EPOCH":"2026-03-15T12:45:06.880032","MEAN_MOTION":15.80898732,"ECCENTRICITY":9.537e-5,"INCLINATION":53.1584,"RA_OF_ASC_NODE":181.8859,"ARG_OF_PERICENTER":114.8549,"MEAN_ANOMALY":245.2573,"EPHEMERIS_TYPE":0,"CLASSIFICATION_TYPE":"U","NORAD_CAT_ID":67872,"ELEMENT_SET_NO":999,"REV_AT_EPOCH":486,"BSTAR":0.0015218041,"MEAN_MOTION_DOT":0.00311103,"MEAN_MOTION_DDOT":0},{"OBJECT_NAME":"STARLINK-36783","OBJECT_ID":"2026-034Z","EPOCH":"2026-03-15T12:44:01.819104","MEAN_MOTION":15.80895192,"ECCENTRICITY":0.00012805,"INCLINATION":53.1599,"RA_OF_ASC_NODE":181.8786,"ARG_OF_PERICENTER":132.4188,"MEAN_ANOMALY":227.6943,"EPHEMERIS_TYPE":0,"CLASSIFICATION_TYPE":"U","NORAD_CAT_ID":67873,"ELEMENT_SET_NO":999,"REV_AT_EPOCH":486,"BSTAR":0.00089401006,"MEAN_MOTION_DOT":0.00179651,"MEAN_MOTION_DDOT":0},{"OBJECT_NAME":"STARLINK-36730","OBJECT_ID":"2026-034AA","EPOCH":"2026-03-15T14:13:59.406816","MEAN_MOTION":15.80965483,"ECCENTRICITY":0.00019662,"INCLINATION":53.1584,"RA_OF_ASC_NODE":181.5593,"ARG_OF_PERICENTER":27.4807,"MEAN_ANOMALY":332.632,"EPHEMERIS_TYPE":0,"CLASSIFICATION_TYPE":"U","NORAD_CAT_ID":67874,"ELEMENT_SET_NO":999,"REV_AT_EPOCH":487,"BSTAR":0.0015460604,"MEAN_MOTION_DOT":0.00317271,"MEAN_MOTION_DDOT":0},{"OBJECT_NAME":"STARLINK-36727","OBJECT_ID":"2026-034AB","EPOCH":"2026-03-15T12:41:52.529280","MEAN_MOTION":15.80904677,"ECCENTRICITY":8.478e-5,"INCLINATION":53.1586,"RA_OF_ASC_NODE":181.8701,"ARG_OF_PERICENTER":55.7602,"MEAN_ANOMALY":304.3501,"EPHEMERIS_TYPE":0,"CLASSIFICATION_TYPE":"U","NORAD_CAT_ID":67875,"ELEMENT_SET_NO":999,"REV_AT_EPOCH":486,"BSTAR":0.0010229815,"MEAN_MOTION_DOT":0.00206404,"MEAN_MOTION_DDOT":0},{"OBJECT_NAME":"STARLINK-36743","OBJECT_ID":"2026-034AC","EPOCH":"2026-03-15T14:11:49.832736","MEAN_MOTION":15.80918165,"ECCENTRICITY":7.85e-5,"INCLINATION":53.159,"RA_OF_ASC_NODE":181.549,"ARG_OF_PERICENTER":88.7168,"MEAN_ANOMALY":271.3945,"EPHEMERIS_TYPE":0,"CLASSIFICATION_TYPE":"U","NORAD_CAT_ID":67876,"ELEMENT_SET_NO":999,"REV_AT_EPOCH":487,"BSTAR":0.0011155155,"MEAN_MOTION_DOT":0.00225791,"MEAN_MOTION_DDOT":0}]
